{"type":"Feature","properties":{"MUN":"SEA BRIGHT BORO","COUNTY":"MONMOUTH","MUN_LABEL":"Sea Bright Borough","MUN_TYPE":"Borough","NAME":"Sea Bright Borough","GNIS_NAME":"Borough of Sea Bright"},"geometry":{"type":"Polygon","coordinates":[[[-73.972359,40.3458644],[-73.9866219,40.3459286],[-73.9883317,40.3470514],[-73.990173,40.3482192],[-73.9910699,40.3488135],[-73.9909203,40.3488758],[-73.9905639,40.3490102],[-73.9895953,40.3495303],[-73.9886714,40.3500041],[-73.9880603,40.3503174],[-73.9868305,40.3510342],[-73.9851981,40.3519032],[-73.982152,40.35327],[-73.9808598,40.3536969],[-73.9789004,40.3543878],[-73.9783668,40.3545762],[-73.9777652,40.3549552],[-73.9772459,40.3554363],[-73.9769265,40.3558802],[-73.9767061,40.3564136],[-73.976653,40.3568332],[-73.9766475,40.3575457],[-73.9767163,40.3583221],[-73.9768786,40.3588445],[-73.9770402,40.3594559],[-73.9771003,40.3599878],[-73.9770856,40.3600414],[-73.9770295,40.3604601],[-73.9769715,40.3610146],[-73.9767925,40.3615789],[-73.9764562,40.3625664],[-73.9761711,40.3632481],[-73.975964,40.3637568],[-73.9757695,40.3643572],[-73.9756757,40.3648563],[-73.9755746,40.3654368],[-73.9755312,40.3658749],[-73.9754885,40.3662212],[-73.9754597,40.3669929],[-73.9754549,40.3676112],[-73.9756055,40.3700338],[-73.9756172,40.3700993],[-73.9757659,40.370936],[-73.9761669,40.3731871],[-73.9762635,40.3740811],[-73.9762657,40.3741013],[-73.9763426,40.3750122],[-73.9763545,40.3750587],[-73.9763972,40.3753999],[-73.9765464,40.37662],[-73.9767139,40.3776666],[-73.9770587,40.3795682],[-73.977468,40.3815949],[-73.9776334,40.3828213],[-73.9776536,40.3829707],[-73.9778427,40.3838716],[-73.9780502,40.3845225],[-73.9784833,40.3855869],[-73.9785406,40.3857455],[-73.9786772,40.3858878],[-73.978981,40.3861333],[-73.9789585,40.3862034],[-73.9788219,40.3867194],[-73.9787691,40.3873003],[-73.9786983,40.38822],[-73.9787337,40.3889225],[-73.9787437,40.3891216],[-73.9787221,40.3902232],[-73.9787671,40.3911849],[-73.9787797,40.3929477],[-73.9788024,40.3942497],[-73.9788586,40.3954519],[-73.9790878,40.3971655],[-73.9793278,40.3983083],[-73.9795313,40.3991105],[-73.9795383,40.3991371],[-73.9752878,40.3994542],[-73.9752963,40.3992555],[-73.9752399,40.3981407],[-73.9751469,40.397333],[-73.9751069,40.3970418],[-73.974964,40.3963731],[-73.9747975,40.3958164],[-73.9746253,40.3953603],[-73.974439,40.3948508],[-73.974254,40.3941521],[-73.9741707,40.3935696],[-73.9739628,40.3924902],[-73.9738616,40.3914884],[-73.9737758,40.3905987],[-73.9735757,40.3889248],[-73.9733463,40.3874609],[-73.973057,40.3857605],[-73.9729447,40.3845173],[-73.9727968,40.3828312],[-73.9726952,40.3816715],[-73.9725721,40.3807704],[-73.9723514,40.3790478],[-73.9722367,40.3779029],[-73.9722247,40.3773481],[-73.9722154,40.3760445],[-73.9722601,40.3750124],[-73.9722443,40.3741546],[-73.97225,40.3737853],[-73.972206,40.3732013],[-73.9721353,40.3726532],[-73.9720565,40.3722538],[-73.9720332,40.3720392],[-73.9719812,40.3715953],[-73.9719042,40.3711491],[-73.9718478,40.3709048],[-73.9718201,40.3707178],[-73.9717841,40.3703461],[-73.9717452,40.3698173],[-73.9717185,40.3693247],[-73.971678,40.3686558],[-73.9716015,40.3674369],[-73.9715505,40.3668528],[-73.9714608,40.3659035],[-73.9714065,40.3650371],[-73.9713448,40.3633427],[-73.971331,40.3619118],[-73.9713538,40.3600522],[-73.9714616,40.3583289],[-73.9714866,40.3572675],[-73.9715205,40.3564864],[-73.971586,40.3555569],[-73.971577,40.3552809],[-73.9715618,40.3551025],[-73.9715083,40.3548432],[-73.9715022,40.3545587],[-73.9714683,40.3539302],[-73.971513,40.3531789],[-73.9715755,40.3526314],[-73.9716356,40.35205],[-73.971712,40.3514942],[-73.9718323,40.3506583],[-73.9718901,40.3503613],[-73.9719627,40.3499541],[-73.9720166,40.3494406],[-73.9721213,40.3488339],[-73.9721536,40.3482438],[-73.9721919,40.3479638],[-73.9722744,40.3473358],[-73.9723451,40.346453],[-73.972359,40.3458644]]]}}
